NORAD_CAT_ID,OBJECT_NAME,OBJECT_TYPE,EPOCH,MEAN_MOTION,ECCENTRICITY,INCLINATION,RA_OF_ASC_NODE,ARG_OF_PERICENTER,MEAN_ANOMALY,BSTAR,MEAN_MOTION_DOT,MEAN_MOTION_DDOT,TLE_LINE0,TLE_LINE1,TLE_LINE2,SEMIMAJOR_AXIS,PERIOD,APOGEE,PERIGEE,DECAYED
50207.0,STARLINK-3262,PAYLOAD,2023-02-27 07:53:33,15.08827581,0.000186,53.2161,165.7649,90.3621,269.7584,-2.4712e-05,-6.81e-06,0.0,0 STARLINK-3262,1 50207U 21125BD  23058.32886176 -.00000681  00000-0 -24712-4 0  9991,2 50207  53.2161 165.7649 0001860  90.3621 269.7584 15.08827581 67704,6917.918,95.438,541.07,538.497,0.0
50207.0,STARLINK-3262,PAYLOAD,2023-02-27 17:25:50,15.08851293,0.0001273,53.2168,163.9787,111.8621,248.2506,0.00014637,2.043e-05,0.0,0 STARLINK-3262,1 50207U 21125BD  23058.72628023  .00002043  00000-0  14637-3 0  9996,2 50207  53.2168 163.9787 0001273 111.8621 248.2506 15.08851293 67760,6917.846,95.437,540.592,538.83,0.0
50207.0,STARLINK-3262,PAYLOAD,2023-02-28 06:08:56,15.08836384,0.0001546,53.2177,161.6038,75.354,284.7623,4.6451e-05,4.51e-06,0.0,0 STARLINK-3262,1 50207U 21125BD  23059.25621412  .00000451  00000-0  46451-4 0  9991,2 50207  53.2177 161.6038 0001546  75.3540 284.7623 15.08836384 67849,6917.891,95.438,540.826,538.687,0.0
50207.0,STARLINK-3262,PAYLOAD,2023-02-28 12:30:28,15.08851351,0.0001473,53.2161,160.4143,115.6537,244.4608,-4.0653e-05,-9.35e-06,0.0,0 STARLINK-3262,1 50207U 21125BD  23059.52116507 -.00000935  00000-0 -40653-4 0  9992,2 50207  53.2161 160.4143 0001473 115.6537 244.4608 15.08851351 67880,6917.846,95.437,540.73,538.692,0.0
50207.0,STARLINK-3262,PAYLOAD,2023-02-28 15:41:14,15.08861771,0.0001463,53.2169,159.8198,84.7438,275.3721,5.4661e-05,5.83e-06,0.0,0 STARLINK-3262,1 50207U 21125BD  23059.65363716  .00000583  00000-0  54661-4 0  9993,2 50207  53.2169 159.8198 0001463  84.7438 275.3721 15.08861771 67904,6917.814,95.436,540.691,538.667,0.0
50207.0,STARLINK-3262,PAYLOAD,2023-02-28 23:38:12,15.08829688,0.0001824,53.216,158.3332,77.7911,282.3285,-0.00025175,-4.291e-05,0.0,0 STARLINK-3262,1 50207U 21125BD  23059.98486770 -.00004291  00000-0 -25175-3 0  9994,2 50207  53.2160 158.3332 0001824  77.7911 282.3285 15.08829688 67957,6917.912,95.438,541.039,538.515,0.0
50207.0,STARLINK-3262,PAYLOAD,2023-03-01 10:45:55,15.08807664,0.0001455,53.2157,156.2531,83.4824,276.6333,-6.0106e-05,-1.243e-05,0.0,0 STARLINK-3262,1 50207U 21125BD  23060.44856402 -.00001243  00000-0 -60106-4 0  9998,2 50207  53.2157 156.2531 0001455  83.4824 276.6333 15.08807664 68027,6917.979,95.44,540.851,538.838,0.0
50207.0,STARLINK-3262,PAYLOAD,2023-03-01 15:32:04,15.08825717,0.0001228,53.2168,155.3583,110.6235,249.4889,-1.394e-05,-5.1e-06,0.0,0 STARLINK-3262,1 50207U 21125BD  23060.64727259 -.00000510  00000-0 -13940-4 0  9997,2 50207  53.2168 155.3583 0001228 110.6235 249.4889 15.08825717 68059,6917.924,95.438,540.639,538.94,0.0
50207.0,STARLINK-3262,PAYLOAD,2023-03-01 23:28:59,15.08839617,0.0001169,53.2166,153.8727,83.1646,276.9479,-4.075e-05,-9.36e-06,0.0,0 STARLINK-3262,1 50207U 21125BD  23060.97846690 -.00000936  00000-0 -40750-4 0  9995,2 50207  53.2166 153.8727 0001169  83.1646 276.9479 15.08839617 68104,6917.882,95.438,540.555,538.938,0.0
50207.0,STARLINK-3262,PAYLOAD,2023-03-02 15:22:48,15.08865973,0.000159,53.2173,150.899,70.3809,289.7354,0.00032776,4.936e-05,0.0,0 STARLINK-3262,1 50207U 21125BD  23061.64084052  .00004936  00000-0  32776-3 0  9996,2 50207  53.2173 150.8990 0001590  70.3809 289.7354 15.08865973 68207,6917.801,95.436,540.766,538.566,0.0
50207.0,STARLINK-3262,PAYLOAD,2023-03-03 08:52:04,15.08840018,0.0001415,53.2155,147.6296,63.904,296.2098,0.00031008,4.65e-05,0.0,0 STARLINK-3262,1 50207U 21125BD  23062.36949674  .00004650  00000-0  31008-3 0  9996,2 50207  53.2155 147.6296 0001415  63.9040 296.2098 15.08840018 68314,6917.88,95.438,540.724,538.766,0.0
50207.0,STARLINK-3262,PAYLOAD,2023-03-03 10:27:27,15.08844699,0.0001593,53.2159,147.3326,64.5412,295.5744,0.00035287,5.333e-05,0.0,0 STARLINK-3262,1 50207U 21125BD  23062.43573273  .00005333  00000-0  35287-3 0  9994,2 50207  53.2159 147.3326 0001593  64.5412 295.5744 15.08844699 68326,6917.866,95.437,540.833,538.629,0.0
50207.0,STARLINK-3262,PAYLOAD,2023-03-03 12:02:49,15.08865473,0.0001173,53.2171,147.0287,111.5316,248.5801,0.00033742,5.09e-05,0.0,0 STARLINK-3262,1 50207U 21125BD  23062.50195805  .00005090  00000-0  33742-3 0  9997,2 50207  53.2171 147.0287 0001173 111.5316 248.5801 15.08865473 68339,6917.803,95.436,540.479,538.856,0.0
50207.0,STARLINK-3262,PAYLOAD,2023-03-03 15:13:35,15.08868535,0.0001151,53.217,146.4337,111.3648,248.7467,0.00035067,5.302e-05,0.0,0 STARLINK-3262,1 50207U 21125BD  23062.63443398  .00005302  00000-0  35067-3 0  9992,2 50207  53.2170 146.4337 0001151 111.3648 248.7467 15.08868535 68353,6917.793,95.436,540.454,538.862,0.0
50207.0,STARLINK-3262,PAYLOAD,2023-03-04 05:32:05,15.08844283,0.0001325,53.2156,143.762,87.6999,272.4145,-0.00013602,-2.452e-05,0.0,0 STARLINK-3262,1 50207U 21125BD  23063.23062324 -.00002452  00000-0 -13602-3 0  9991,2 50207  53.2156 143.7620 0001325  87.6999 272.4145 15.08844283 68440,6917.867,95.437,540.649,538.816,0.0
50207.0,STARLINK-3262,PAYLOAD,2023-03-04 10:18:14,15.08845381,0.000145,53.2162,142.8713,85.2773,274.8385,-0.00012327,-2.25e-05,0.0,0 STARLINK-3262,1 50207U 21125BD  23063.42934007 -.00002250  00000-0 -12327-3 0  9997,2 50207  53.2162 142.8713 0001450  85.2773 274.8385 15.08845381 68478,6917.864,95.437,540.732,538.726,0.0
50207.0,STARLINK-3262,PAYLOAD,2023-03-04 11:53:37,15.0885191,0.0001339,53.2163,142.5706,99.6739,260.4405,-0.00016831,-2.966e-05,0.0,0 STARLINK-3262,1 50207U 21125BD  23063.49557479 -.00002966  00000-0 -16831-3 0  9996,2 50207  53.2163 142.5706 0001339  99.6739 260.4405 15.08851910 68485,6917.844,95.437,540.635,538.783,0.0
50207.0,STARLINK-3262,PAYLOAD,2023-03-05 08:33:38,15.08841942,0.0001308,53.2167,138.7062,114.3738,245.7391,-0.00011509,-2.119e-05,0.0,0 STARLINK-3262,1 50207U 21125BD  23064.35669806 -.00002119  00000-0 -11509-3 0  9997,2 50207  53.2167 138.7062 0001308 114.3738 245.7391 15.08841942 68610,6917.874,95.437,540.644,538.835,0.0
50207.0,STARLINK-3262,PAYLOAD,2023-03-05 21:16:43,15.08838939,0.0001074,53.2164,136.3264,95.0871,265.0243,-0.00017858,-3.129e-05,0.0,0 STARLINK-3262,1 50207U 21125BD  23064.88661149 -.00003129  00000-0 -17858-3 0  9992,2 50207  53.2164 136.3264 0001074  95.0871 265.0243 15.08838939 68699,6917.884,95.438,540.492,539.006,0.0
50207.0,STARLINK-3262,PAYLOAD,2023-03-06 11:35:09,15.08877754,0.0001244,53.216,133.6514,107.8785,252.2343,0.00066719,0.00010357,0.0,0 STARLINK-3262,1 50207U 21125BD  23065.48275094  .00010357  00000-0  66719-3 0  9998,2 50207  53.2160 133.6514 0001244 107.8785 252.2343 15.08877754 68785,6917.765,95.435,540.491,538.769,0.0
50207.0,STARLINK-3262,PAYLOAD,2023-03-06 21:07:31,15.08815535,0.0001479,53.2161,131.8666,94.2104,265.9057,-0.00020885,-3.608e-05,0.0,0 STARLINK-3262,1 50207U 21125BD  23065.88022563 -.00003608  00000-0 -20885-3 0  9990,2 50207  53.2161 131.8666 0001479  94.2104 265.9057 15.08815535 68847,6917.955,95.439,540.843,538.797,0.0
50207.0,STARLINK-3262,PAYLOAD,2023-03-07 05:04:27,15.08820431,0.000117,53.2156,130.3797,93.1714,266.9412,-0.00035864,-5.988e-05,0.0,0 STARLINK-3262,1 50207U 21125BD  23066.21142597 -.00005988  00000-0 -35864-3 0  9994,2 50207  53.2156 130.3797 0001170  93.1714 266.9412 15.08820431 68895,6917.94,95.439,540.615,538.996,0.0
50207.0,STARLINK-3262,PAYLOAD,2023-03-07 20:58:18,15.08826739,0.0001129,53.2164,127.4061,99.6528,260.4592,-5.2413e-05,-1.122e-05,0.0,0 STARLINK-3262,1 50207U 21125BD  23066.87382201 -.00001122  00000-0 -52413-4 0  9990,2 50207  53.2164 127.4061 0001129  99.6528 260.4592 15.08826739 68999,6917.921,95.438,540.567,539.005,0.0
50207.0,STARLINK-3262,PAYLOAD,2023-03-08 12:52:08,15.08853396,0.0001452,53.2146,124.4318,98.6288,261.4868,-2.4301e-05,-6.75e-06,0.0,0 STARLINK-3262,1 50207U 21125BD  23067.53621102 -.00000675  00000-0 -24301-4 0  9997,2 50207  53.2146 124.4318 0001452  98.6288 261.4868 15.08853396 69090,6917.839,95.437,540.709,538.7,0.0
50207.0,STARLINK-3262,PAYLOAD,2023-03-08 20:49:04,15.08848353,0.0001382,53.2143,122.9453,86.8695,273.2455,1.5864e-05,-3.5e-07,0.0,0 STARLINK-3262,1 50207U 21125BD  23067.86741591 -.00000035  00000-0  15864-4 0  9991,2 50207  53.2143 122.9453 0001382  86.8695 273.2455 15.08848353 69149,6917.855,95.437,540.676,538.764,0.0
50207.0,STARLINK-3262,PAYLOAD,2023-03-09 12:42:55,15.08863915,0.0001522,53.215,119.9715,92.2182,267.8985,0.00036085,5.463e-05,0.0,0 STARLINK-3262,1 50207U 21125BD  23068.52981147  .00005463  00000-0  36085-3 0  9994,2 50207  53.2150 119.9715 0001522  92.2182 267.8985 15.08863915 69241,6917.807,95.436,540.725,538.619,0.0
50207.0,STARLINK-3262,PAYLOAD,2023-03-09 20:39:51,15.08848932,0.0001438,53.2152,118.4854,90.2021,269.9136,0.00012809,1.752e-05,0.0,0 STARLINK-3262,1 50207U 21125BD  23068.86101747  .00001752  00000-0  12809-3 0  9996,2 50207  53.2152 118.4854 0001438  90.2021 269.9136 15.08848932 69295,6917.853,95.437,540.713,538.723,0.0
50207.0,STARLINK-3262,PAYLOAD,2023-03-10 20:30:38,15.08845102,0.0001151,53.2147,114.0231,89.1417,270.9707,1.6852e-05,-2e-07,0.0,0 STARLINK-3262,1 50207U 21125BD  23069.85461696 -.00000020  00000-0  16852-4 0  9999,2 50207  53.2147 114.0231 0001151  89.1417 270.9707 15.08845102 69447,6917.865,95.437,540.526,538.934,0.0
50207.0,STARLINK-3262,PAYLOAD,2023-03-11 02:52:12,15.088217,0.000174,53.2162,112.8341,79.9817,280.1371,-0.00023393,-4.007e-05,0.0,0 STARLINK-3262,1 50207U 21125BD  23070.11959299 -.00004007  00000-0 -23393-3 0  9998,2 50207  53.2162 112.8341 0001740  79.9817 280.1371 15.08821700 69489,6917.936,95.439,541.005,538.598,0.0
50207.0,STARLINK-3262,PAYLOAD,2023-03-11 07:38:22,15.0882723,0.0001709,53.2156,111.9432,77.9867,282.1317,-0.00013166,-2.382e-05,0.0,0 STARLINK-3262,1 50207U 21125BD  23070.31831090 -.00002382  00000-0 -13166-3 0  9999,2 50207  53.2156 111.9432 0001709  77.9867 282.1317 15.08827230 69511,6917.919,95.438,540.967,538.602,0.0
